NORAD_CAT_ID,OBJECT_NAME,OBJECT_TYPE,EPOCH,MEAN_MOTION,ECCENTRICITY,INCLINATION,RA_OF_ASC_NODE,ARG_OF_PERICENTER,MEAN_ANOMALY,BSTAR,MEAN_MOTION_DOT,MEAN_MOTION_DDOT,TLE_LINE0,TLE_LINE1,TLE_LINE2,SEMIMAJOR_AXIS,PERIOD,APOGEE,PERIGEE,DECAYED
51876.0,STARLINK-3583,PAYLOAD,2022-07-22 22:00:00,15.08809856,0.0001959,53.2154,200.7323,46.8177,162.2398,0.0022884,0.0003628999999999,0.0,0 STARLINK-3583,1 51876U 22022AA  22203.91667824  .00036290  00000-0  22884-2 0  9993,2 51876  53.2154 200.7323 0001959  46.8177 162.2398 15.08809856  1308,6917.973000000001,95.439,541.193,538.482,0.0
51876.0,STARLINK-3583,PAYLOAD,2022-07-23 08:00:01,15.08821436,0.0002190999999999,53.2154,198.8638,43.5331,269.9989,0.0007882,0.00012272,0.0,0 STARLINK-3583,1 51876U 22022AA  22204.33334491  .00012272  00000-0  78820-3 0  9997,2 51876  53.2154 198.8638 0002191  43.5331 269.9989 15.08821436 23021,6917.937,95.439,541.318,538.286,0.0
51876.0,STARLINK-3583,PAYLOAD,2022-07-23 14:00:01,15.08844835,0.0002133,53.2151,197.7409,43.168,189.1032,-0.0016883,-0.00027061,0.0,0 STARLINK-3583,1 51876U 22022AA  22204.58335648 -.00027061  00000-0 -16883-2 0  9993,2 51876  53.2151 197.7409 0002133  43.1680 189.1032 15.08844835  1308,6917.866,95.437,541.206,538.255,0.0
51876.0,STARLINK-3583,PAYLOAD,2022-07-23 22:00:00,15.08821375,0.000198,53.2152,196.2432,48.8296,194.9758,0.0022467,0.00035631,0.0,0 STARLINK-3583,1 51876U 22022AA  22204.91667824  .00035631  00000-0  22467-2 0  9999,2 51876  53.2152 196.2432 0001980  48.8296 194.9758 15.08821375  1306,6917.937,95.439,541.172,538.433,0.0
51876.0,STARLINK-3583,PAYLOAD,2022-07-24 14:00:01,15.0885598,0.0002131999999999,53.2147,193.2517,45.1142,221.865,-0.0020761,-0.00033193,0.0,0 STARLINK-3583,1 51876U 22022AA  22205.58334491 -.00033193  00000-0 -20761-2 0  9992,2 51876  53.2147 193.2517 0002132  45.1142 221.8650 15.08855980  1301,6917.831999999999,95.437,541.1709999999998,538.222,0.0
51876.0,STARLINK-3583,PAYLOAD,2022-07-24 22:00:00,15.08829467,0.0002008,53.2148,191.7541,51.0759,227.5073,0.0020418,0.00032348,0.0,0 STARLINK-3583,1 51876U 22022AA  22205.91667824  .00032348  00000-0  20418-2 0  9996,2 51876  53.2148 191.7541 0002008  51.0759 227.5073 15.08829467  1307,6917.913000000001,95.438,541.1669999999998,538.388,0.0
51876.0,STARLINK-3583,PAYLOAD,2022-07-25 06:00:00,15.08844345,0.0002195,53.2146,190.2595,47.4214,242.7602,-0.00045103,-7.46e-05,0.0,0 STARLINK-3583,1 51876U 22022AA  22206.25001157 -.00007460  00000-0 -45103-3 0  9993,2 51876  53.2146 190.2595 0002195  47.4214 242.7602 15.08844345 23314,6917.8669999999975,95.437,541.251,538.214,0.0
51876.0,STARLINK-3583,PAYLOAD,2022-07-25 14:00:01,15.08873881,0.0002116,53.2143,188.7625,46.4714,255.3,-0.0047281,-0.00074827,0.0,0 STARLINK-3583,1 51876U 22022AA  22206.58334491 -.00074827  00000-0 -47281-2 0  9998,2 51876  53.2143 188.7625 0002116  46.4714 255.3000 15.08873881  1308,6917.776999999999,95.435,541.106,538.178,0.0
51876.0,STARLINK-3583,PAYLOAD,2022-07-25 22:00:00,15.08809634,0.0001976999999999,53.2144,187.265,51.3202,262.0615,0.001846,0.00029189,0.0,0 STARLINK-3583,1 51876U 22022AA  22206.91667824  .00029189  00000-0  18460-2 0  9990,2 51876  53.2144 187.2650 0001977  51.3202 262.0615 15.08809634  1304,6917.973000000001,95.439,541.206,538.471,0.0
51876.0,STARLINK-3583,PAYLOAD,2022-07-26 14:00:01,15.08840985,0.0002134999999999,53.214,184.2733,47.0282,289.4926,-0.0023456999999999,-0.00037429,0.0,0 STARLINK-3583,1 51876U 22022AA  22207.58334491 -.00037429  00000-0 -23457-2 0  9995,2 51876  53.2140 184.2733 0002135  47.0282 289.4926 15.08840985 23515,6917.877,95.437,541.219,538.265,0.0
51876.0,STARLINK-3583,PAYLOAD,2022-07-26 22:00:00,15.0881754,0.0002073,53.2143,182.7759,52.8323,295.2696,0.0016555999999999,0.00026143,0.0,0 STARLINK-3583,1 51876U 22022AA  22207.91667824  .00026143  00000-0  16556-2 0  9992,2 51876  53.2143 182.7759 0002073  52.8323 295.2696 15.08817540  1303,6917.949000000001,95.439,541.248,538.38,0.0
51876.0,STARLINK-3583,PAYLOAD,2022-07-27 06:00:02,15.08825268,0.0002284,53.2143,181.2813,48.6927,311.0572,7.2592e-05,8.67e-06,0.0,0 STARLINK-3583,1 51876U 22022AA  22208.25002315  .00000867  00000-0  72592-4 0  9997,2 51876  53.2143 181.2813 0002284  48.6927 311.0572 15.08825268 23619,6917.925,95.438,541.37,538.21,0.0
51876.0,STARLINK-3583,PAYLOAD,2022-07-27 14:00:01,15.0884866,0.0002225,53.2143,179.7839,48.5979,322.6649,-0.0022261,-0.00035552,0.0,0 STARLINK-3583,1 51876U 22022AA  22208.58334491 -.00035552  00000-0 -22261-2 0  9993,2 51876  53.2143 179.7839 0002225  48.5979 322.6649 15.08848660  1306,6917.854,95.437,541.258,538.18,0.0
51876.0,STARLINK-3583,PAYLOAD,2022-07-27 22:00:00,15.08831335,0.0002184,53.2146,178.2867,53.8595,328.9949,0.0014335,0.00022595,0.0,0 STARLINK-3583,1 51876U 22022AA  22208.91667824  .00022595  00000-0  14335-2 0  9993,2 51876  53.2146 178.2867 0002184  53.8595 328.9949 15.08831335  1304,6917.906999999997,95.438,541.283,538.261,0.0
51876.0,STARLINK-3583,PAYLOAD,2022-07-28 14:00:01,15.08858228,0.0002327,53.215,175.2946,50.4436,355.5956,-0.0019887,-0.00031816,0.0,0 STARLINK-3583,1 51876U 22022AA  22209.58334491 -.00031816  00000-0 -19887-2 0  9993,2 51876  53.2150 175.2946 0002327  50.4436 355.5956 15.08858228  1304,6917.825,95.436,541.299,538.08,0.0
51876.0,STARLINK-3583,PAYLOAD,2022-07-28 22:00:00,15.08846959,0.0002299999999999,53.2154,173.7975,55.0083,2.6337,0.0010355,0.00016234,0.0,0 STARLINK-3583,1 51876U 22022AA  22209.91667824  .00016234  00000-0  10355-2 0  9995,2 51876  53.2154 173.7975 0002300  55.0083   2.6337 15.08846959  1304,6917.859,95.437,541.315,538.133,0.0
51876.0,STARLINK-3583,PAYLOAD,2022-07-29 00:00:00,15.08863658,0.0002334999999999,53.2155,173.4239,54.2854,96.2544,-0.0011640999999999,-0.0001878,0.0,0 STARLINK-3583,1 51876U 22022AA  22210.00001157 -.00018780  00000-0 -11641-2 0  9997,2 51876  53.2155 173.4239 0002335  54.2854  96.2544 15.08863658 23881,6917.808000000001,95.436,541.288,538.058,0.0
51876.0,STARLINK-3583,PAYLOAD,2022-07-29 14:00:01,15.08858399,0.0002354,53.2158,170.8053,51.607,29.2516,-0.0028146,-0.00044829,0.0,0 STARLINK-3583,1 51876U 22022AA  22210.58334491 -.00044829  00000-0 -28146-2 0  9991,2 51876  53.2158 170.8053 0002354  51.6070  29.2516 15.08858399  1305,6917.824000000001,95.436,541.318,538.061,0.0
51876.0,STARLINK-3583,PAYLOAD,2022-07-29 22:00:00,15.08840839,0.0002318,53.2162,169.3084,55.3163,37.137,0.00047658,7.305e-05,0.0,0 STARLINK-3583,1 51876U 22022AA  22210.91667824  .00007305  00000-0  47658-3 0  9993,2 51876  53.2162 169.3084 0002318  55.3163  37.1370 15.08840839  1307,6917.878000000002,95.438,541.346,538.139,0.0
51876.0,STARLINK-3583,PAYLOAD,2022-07-30 06:00:00,15.08829639,0.0002491,53.2163,167.8138,51.2366,52.8201,0.0012735,0.00020032,0.0,0 STARLINK-3583,1 51876U 22022AA  22211.25001157  .00020032  00000-0  12735-2 0  9991,2 51876  53.2163 167.8138 0002491  51.2366  52.8201 15.08829639 24074,6917.9119999999975,95.438,541.5,538.054,0.0
51876.0,STARLINK-3583,PAYLOAD,2022-07-30 14:00:01,15.08854742,0.0002369,53.2164,166.3163,53.3539,62.293,-0.0015206,-0.00024418,0.0,0 STARLINK-3583,1 51876U 22022AA  22211.58334491 -.00024418  00000-0 -15206-2 0  9997,2 51876  53.2164 166.3163 0002369  53.3539  62.2930 15.08854742  1304,6917.835,95.437,541.339,538.061,0.0
51876.0,STARLINK-3583,PAYLOAD,2022-07-30 22:00:00,15.08861403,0.000231,53.2168,164.8195,56.4615,70.7843,-0.0028875999999999,-0.0004598,0.0,0 STARLINK-3583,1 51876U 22022AA  22211.91667824 -.00045980  00000-0 -28876-2 0  9997,2 51876  53.2168 164.8195 0002310  56.4615  70.7843 15.08861403  1300,6917.815,95.436,541.278,538.082,0.0
51876.0,STARLINK-3583,PAYLOAD,2022-07-31 06:00:02,15.08807778,0.000242,53.2167,163.3249,51.0555,87.8597,0.0016780999999999,0.00026497,0.0,0 STARLINK-3583,1 51876U 22022AA  22212.25002315  .00026497  00000-0  16781-2 0  9995,2 51876  53.2167 163.3249 0002420  51.0555  87.8597 15.08807778 24225,6917.979,95.44,541.518,538.17,0.0
51876.0,STARLINK-3583,PAYLOAD,2022-07-31 14:00:01,15.08832562,0.000229,53.2166,161.8273,54.2831,96.1379,-0.0011587,-0.00018679,0.0,0 STARLINK-3583,1 51876U 22022AA  22212.58334491 -.00018679  00000-0 -11587-2 0  9998,2 51876  53.2166 161.8273 0002290  54.2831  96.1379 15.08832562  1305,6917.903,95.438,541.352,538.184,0.0
51876.0,STARLINK-3583,PAYLOAD,2022-07-31 22:00:00,15.08839246,0.0002286,53.2168,160.3309,57.8463,104.1506,-0.00042446,-7.037e-05,0.0,0 STARLINK-3583,1 51876U 22022AA  22212.91667824 -.00007037  00000-0 -42446-3 0  9999,2 51876  53.2168 160.3309 0002286  57.8463 104.1506 15.08839246  1304,6917.8830000000025,95.438,541.3290000000002,538.1659999999998,0.0
51876.0,STARLINK-3583,PAYLOAD,2022-08-01 06:00:00,15.08814381,0.0002437,53.2166,158.8362,53.0657,120.5282,0.0021423,0.00033948,0.0,0 STARLINK-3583,1 51876U 22022AA  22213.25001157  .00033948  00000-0  21423-2 0  9997,2 51876  53.2166 158.8362 0002437  53.0657 120.5282 15.08814381 24372,6917.959,95.439,541.51,538.138,0.0
51876.0,STARLINK-3583,PAYLOAD,2022-08-01 14:00:01,15.0883927,0.0002302,53.2163,157.3384,56.9635,128.2121,-0.00062972,-0.00010297,0.0,0 STARLINK-3583,1 51876U 22022AA  22213.58334491 -.00010297  00000-0 -62972-3 0  9992,2 51876  53.2163 157.3384 0002302  56.9635 128.2121 15.08839270  1305,6917.8830000000025,95.438,541.34,538.155,0.0
51876.0,STARLINK-3583,PAYLOAD,2022-08-01 22:00:00,15.08851922,0.0002325,53.2164,155.8423,60.2784,136.483,-0.00076381,-0.00012428,0.0,0 STARLINK-3583,1 51876U 22022AA  22213.91667824 -.00012428  00000-0 -76381-3 0  9995,2 51876  53.2164 155.8423 0002325  60.2784 136.4830 15.08851922 24470,6917.844,95.437,541.317,538.101,0.0
51876.0,STARLINK-3583,PAYLOAD,2022-08-02 14:00:01,15.0884369,0.0002335999999999,53.2158,152.8494,59.2873,160.6764,-0.00014411,-2.581e-05,0.0,0 STARLINK-3583,1 51876U 22022AA  22214.58334491 -.00002581  00000-0 -14411-3 0  9995,2 51876  53.2158 152.8494 0002336  59.2873 160.6764 15.08843690  1302,6917.869000000002,95.437,541.35,538.118,0.0
